NORAD_CAT_ID,OBJECT_NAME,OBJECT_TYPE,EPOCH,MEAN_MOTION,ECCENTRICITY,INCLINATION,RA_OF_ASC_NODE,ARG_OF_PERICENTER,MEAN_ANOMALY,BSTAR,MEAN_MOTION_DOT,MEAN_MOTION_DDOT,TLE_LINE0,TLE_LINE1,TLE_LINE2,SEMIMAJOR_AXIS,PERIOD,APOGEE,PERIGEE,DECAYED
52126.0,STARLINK-3732,PAYLOAD,2022-11-24 13:35:00,15.08830559,0.0001891,53.2209,61.1651,51.4855,308.6307,-1.6408000000000002e-07,-2.91e-06,0.0,0 STARLINK-3732,1 52126U 22029AQ  22328.56598002 -.00000291  00000-0 -16408-6 0  9992,2 52126  53.2209  61.1651 0001891  51.4855 308.6307 15.08830559 39593,6917.909000000002,95.438,541.082,538.466,0.0
52126.0,STARLINK-3732,PAYLOAD,2022-11-25 10:15:01,15.08836301,0.0001648,53.2195,57.2978,51.1772,308.9367,5.5059e-05,5.88e-06,0.0,0 STARLINK-3732,1 52126U 22029AQ  22329.42709611  .00000588  00000-0  55059-4 0  9998,2 52126  53.2195  57.2978 0001648  51.1772 308.9367 15.08836301 39725,6917.892,95.438,540.8969999999998,538.617,0.0
52126.0,STARLINK-3732,PAYLOAD,2022-11-25 11:50:24,15.08836975,0.0001688,53.2198,57.0015,50.6172,309.497,6.3403e-05,7.21e-06,0.0,0 STARLINK-3732,1 52126U 22029AQ  22329.49333620  .00000721  00000-0  63403-4 0  9999,2 52126  53.2198  57.0015 0001688  50.6172 309.4970 15.08836975 39734,6917.89,95.438,540.922,538.587,0.0
52126.0,STARLINK-3732,PAYLOAD,2022-11-25 15:01:10,15.0883611,0.0001753,53.2197,56.4069,47.5783,312.5358,4.8954e-05,4.91e-06,0.0,0 STARLINK-3732,1 52126U 22029AQ  22329.62581782  .00000491  00000-0  48954-4 0  9996,2 52126  53.2197  56.4069 0001753  47.5783 312.5358 15.08836110 39759,6917.892,95.438,540.97,538.545,0.0
52126.0,STARLINK-3732,PAYLOAD,2022-11-26 08:30:24,15.08844243,0.000164,53.2199,53.1345,44.4872,315.6252,0.00016217,2.294e-05,0.0,0 STARLINK-3732,1 52126U 22029AQ  22330.35444763  .00002294  00000-0  16217-3 0  9994,2 52126  53.2199  53.1345 0001640  44.4872 315.6252 15.08844243 39867,6917.8669999999975,95.437,540.867,538.5980000000002,0.0
52126.0,STARLINK-3732,PAYLOAD,2022-11-26 11:41:10,15.08852512,0.0001797,53.2199,52.5415,46.1423,313.9717,0.00017755,2.54e-05,0.0,0 STARLINK-3732,1 52126U 22029AQ  22330.48692257  .00002540  00000-0  17755-3 0  9993,2 52126  53.2199  52.5415 0001797  46.1423 313.9717 15.08852512 39889,6917.842,95.437,540.95,538.464,0.0
52126.0,STARLINK-3732,PAYLOAD,2022-11-26 14:51:56,15.08853532,0.0001518,53.2198,51.9479,67.2019,292.9134,7.7825e-05,9.51e-06,0.0,0 STARLINK-3732,1 52126U 22029AQ  22330.61940397  .00000951  00000-0  77825-4 0  9998,2 52126  53.2198  51.9479 0001518  67.2019 292.9134 15.08853532 39902,6917.839,95.437,540.754,538.654,0.0
52126.0,STARLINK-3732,PAYLOAD,2022-11-27 08:21:12,15.08828613,0.0001511,53.2209,48.6756,52.7998,307.3132,-5.2999e-06,-3.72e-06,0.0,0 STARLINK-3732,1 52126U 22029AQ  22331.34805910 -.00000372  00000-0 -52999-5 0  9995,2 52126  53.2209  48.6756 0001511  52.7998 307.3132 15.08828613 40019,6917.915,95.438,540.825,538.735,0.0
52126.0,STARLINK-3732,PAYLOAD,2022-11-27 11:31:58,15.0882886,0.0002558,53.2216,48.0856,43.6318,316.4876,3.9717e-05,3.44e-06,0.0,0 STARLINK-3732,1 52126U 22029AQ  22331.48053965  .00000344  00000-0  39717-4 0  9994,2 52126  53.2216  48.0856 0002558  43.6318 316.4876 15.08828860 40031,6917.9140000000025,95.438,541.549,538.01,0.0
52126.0,STARLINK-3732,PAYLOAD,2022-11-27 14:42:45,15.08823552,0.0001714,53.2198,47.4861,47.8827,312.231,-7.7995e-05,-1.529e-05,0.0,0 STARLINK-3732,1 52126U 22029AQ  22331.61302712 -.00001529  00000-0 -77995-4 0  9994,2 52126  53.2198  47.4861 0001714  47.8827 312.2310 15.08823552 40055,6917.931,95.439,540.981,538.61,0.0
52126.0,STARLINK-3732,PAYLOAD,2022-11-27 22:39:41,15.08828122,0.0001825,53.2206,45.9997,47.6165,312.4981,-3.8894e-05,-9.07e-06,0.0,0 STARLINK-3732,1 52126U 22029AQ  22331.94422466 -.00000907  00000-0 -38894-4 0  9993,2 52126  53.2206  45.9997 0001825  47.6165 312.4981 15.08828122 40104,6917.917,95.438,541.044,538.519,0.0
52126.0,STARLINK-3732,PAYLOAD,2022-11-28 11:22:45,15.08848158,0.0001817,53.2198,43.6209,44.3655,315.7483,-5.84e-05,-1.218e-05,0.0,0 STARLINK-3732,1 52126U 22029AQ  22332.47413243 -.00001218  00000-0 -58400-4 0  9996,2 52126  53.2198  43.6209 0001817  44.3655 315.7483 15.08848158 40186,6917.855,95.437,540.977,538.4630000000002,0.0
52126.0,STARLINK-3732,PAYLOAD,2022-11-28 14:33:31,15.08845659,0.0001807,53.2199,43.0265,44.6748,315.439,-7.3156e-05,-1.452e-05,0.0,0 STARLINK-3732,1 52126U 22029AQ  22332.60661404 -.00001452  00000-0 -73156-4 0  9990,2 52126  53.2199  43.0265 0001807  44.6748 315.4390 15.08845659 40208,6917.863,95.437,540.9780000000002,538.4780000000002,0.0
52126.0,STARLINK-3732,PAYLOAD,2022-11-29 11:13:32,15.08840164,0.00019,53.2199,39.1617,38.0485,322.0641,-6.7013e-05,-1.355e-05,0.0,0 STARLINK-3732,1 52126U 22029AQ  22333.46773770 -.00001355  00000-0 -67013-4 0  9992,2 52126  53.2199  39.1617 0001900  38.0485 322.0641 15.08840164 40337,6917.88,95.438,541.059,538.43,0.0
52126.0,STARLINK-3732,PAYLOAD,2022-11-29 15:59:41,15.08835858,0.0001822,53.2197,38.2694,39.5477,320.5648,0.00017324,2.47e-05,0.0,0 STARLINK-3732,1 52126U 22029AQ  22333.66645504  .00002470  00000-0  17324-3 0  9993,2 52126  53.2197  38.2694 0001822  39.5477 320.5648 15.08835858 40367,6917.893,95.438,541.018,538.498,0.0
52126.0,STARLINK-3732,PAYLOAD,2022-11-30 06:18:10,15.0883886,0.0001873,53.2195,35.5934,42.2234,317.8902,4.4657e-05,4.23e-06,0.0,0 STARLINK-3732,1 52126U 22029AQ  22334.26261902  .00000423  00000-0  44657-4 0  9992,2 52126  53.2195  35.5934 0001873  42.2234 317.8902 15.08838860 40458,6917.884,95.438,541.045,538.453,0.0
52126.0,STARLINK-3732,PAYLOAD,2022-11-30 14:15:06,15.08839087,0.0001854,53.22,34.107,40.4367,319.6763,3.2519e-05,2.29e-06,0.0,0 STARLINK-3732,1 52126U 22029AQ  22334.59381953  .00000229  00000-0  32519-4 0  9995,2 52126  53.2200  34.1070 0001854  40.4367 319.6763 15.08839087 40500,6917.8830000000025,95.438,541.031,538.466,0.0
52126.0,STARLINK-3732,PAYLOAD,2022-11-30 20:36:38,15.08834799,0.0002103,53.2208,32.917,38.4245,321.6896,-1.5231e-05,-5.31e-06,0.0,0 STARLINK-3732,1 52126U 22029AQ  22334.85878443 -.00000531  00000-0 -15231-4 0  9999,2 52126  53.2208  32.9170 0002103  38.4245 321.6896 15.08834799 40544,6917.896,95.438,541.216,538.306,0.0
52126.0,STARLINK-3732,PAYLOAD,2022-12-01 12:30:30,15.08839903,0.0001906,53.2191,29.9425,33.4569,326.6543,-7.031e-06,-4e-06,0.0,0 STARLINK-3732,1 52126U 22029AQ  22335.52118158 -.00000400  00000-0 -70310-5 0  9999,2 52126  53.2191  29.9425 0001906  33.4569 326.6543 15.08839903 40645,6917.880999999999,95.438,541.064,538.427,0.0
52126.0,STARLINK-3732,PAYLOAD,2022-12-02 10:45:54,15.0883888,0.0001941,53.2188,25.7786,33.1888,326.9226,-2.7775e-05,-7.299999999999999e-06,0.0,0 STARLINK-3732,1 52126U 22029AQ  22336.44854310 -.00000730  00000-0 -27775-4 0  9990,2 52126  53.2188  25.7786 0001941  33.1888 326.9226 15.08838880 40784,6917.884,95.438,541.092,538.406,0.0
52126.0,STARLINK-3732,PAYLOAD,2022-12-02 17:07:26,15.08841463,0.0001914,53.2196,24.5903,39.9555,320.1578,5.0349e-06,-2.08e-06,0.0,0 STARLINK-3732,1 52126U 22029AQ  22336.71350065 -.00000208  00000-0  50349-5 0  9991,2 52126  53.2196  24.5903 0001914  39.9555 320.1578 15.08841463 40828,6917.876,95.437,541.065,538.4169999999998,0.0
52126.0,STARLINK-3732,PAYLOAD,2022-12-03 10:36:41,15.08837279,0.0002015,53.2196,21.3197,38.1114,322.002,-1.0545e-05,-4.56e-06,0.0,0 STARLINK-3732,1 52126U 22029AQ  22337.44214534 -.00000456  00000-0 -10545-4 0  9991,2 52126  53.2196  21.3197 0002015  38.1114 322.0020 15.08837279 40938,6917.889,95.438,541.148,538.36,0.0
52126.0,STARLINK-3732,PAYLOAD,2022-12-03 20:09:00,15.08834129,0.0002149,53.2196,19.5355,35.3411,324.7723,0.00010843,1.438e-05,0.0,0 STARLINK-3732,1 52126U 22029AQ  22337.83958455  .00001438  00000-0  10843-3 0  9990,2 52126  53.2196  19.5355 0002149  35.3411 324.7723 15.08834129 40996,6917.898,95.438,541.25,538.2769999999998,0.0
52126.0,STARLINK-3732,PAYLOAD,2022-12-04 10:27:28,15.08833184,0.000214,53.2208,16.8605,38.3189,321.7955,3.7847e-05,3.14e-06,0.0,0 STARLINK-3732,1 52126U 22029AQ  22338.43574873  .00000314  00000-0  37847-4 0  9991,2 52126  53.2208  16.8605 0002140  38.3189 321.7955 15.08833184 41089,6917.901,95.438,541.247,538.286,0.0
52126.0,STARLINK-3732,PAYLOAD,2022-12-04 15:13:38,15.08833894,0.000217,53.2208,15.9685,40.4813,319.634,3.6335e-05,2.9e-06,0.0,0 STARLINK-3732,1 52126U 22029AQ  22338.63446916  .00000290  00000-0  36335-4 0  9993,2 52126  53.2208  15.9685 0002170  40.4813 319.6340 15.08833894 41114,6917.899,95.438,541.265,538.263,0.0
52126.0,STARLINK-3732,PAYLOAD,2022-12-05 02:21:19,15.08845253,0.0002162,53.2201,13.8871,38.9777,321.1371,7.7994e-05,9.53e-06,0.0,0 STARLINK-3732,1 52126U 22029AQ  22339.09813988  .00000953  00000-0  77994-4 0  9993,2 52126  53.2201  13.8871 0002162  38.9777 321.1371 15.08845253 41184,6917.864000000001,95.437,541.225,538.234,0.0
52126.0,STARLINK-3732,PAYLOAD,2022-12-05 08:42:51,15.08841002,0.0002152,53.2205,12.6975,39.3198,320.795,9.5297e-05,1.229e-05,0.0,0 STARLINK-3732,1 52126U 22029AQ  22339.36310176  .00001229  00000-0  95297-4 0  9997,2 52126  53.2205  12.6975 0002152  39.3198 320.7950 15.08841002 41222,6917.877,95.437,541.231,538.254,0.0
52126.0,STARLINK-3732,PAYLOAD,2022-12-05 19:50:33,15.08849451,0.0001986,53.2206,10.6159,45.0514,315.0639,0.00013841,1.916e-05,0.0,0 STARLINK-3732,1 52126U 22029AQ  22339.82677326  .00001916  00000-0  13841-3 0  9998,2 52126  53.2206  10.6159 0001986  45.0514 315.0639 15.08849451 41299,6917.852,95.437,541.09,538.3430000000002,0.0
52126.0,STARLINK-3732,PAYLOAD,2022-12-06 08:33:38,15.08840815,0.0002147,53.2199,8.2363,41.1745,318.9408,0.00012229,1.659e-05,0.0,0 STARLINK-3732,1 52126U 22029AQ  22340.35669764  .00001659  00000-0  12229-3 0  9998,2 52126  53.2199   8.2363 0002147  41.1745 318.9408 15.08840815 41373,6917.878000000002,95.438,541.2280000000002,538.258,0.0
